2024-092D               
1 59776U 24092D   26068.88372108  .00024443  00000+0  76511-3 0  9999
2 59776  97.6418 198.2302 0008340 141.9853 218.1979 15.33078357100518
STARLINK-35124          
1 65511U 25198V   26068.81983033  .00004006  00000+0  14744-3 0  9992
2 65511  53.1587 270.1344 0001321  60.2802 299.8330 15.30170001 28636
